IRIDIUM 106             
1 41917U 17003A   25340.95298845  .00000006  00000+0 -49867-5 0  9992
2 41917  86.3992 168.8700 0002033 101.7117 258.4307 14.34218707465659
IRIDIUM 103             
1 41918U 17003B   25340.94029802  .00000397  00000+0  13453-3 0  9999
2 41918  86.3988 168.7759 0001577  89.0319 271.1058 14.34219614465677
IRIDIUM 109             
1 41919U 17003C   25340.94666467  .00000073  00000+0  18954-4 0  9997
2 41919  86.3989 168.8296 0001875  89.1773 270.9638 14.34218331465645
IRIDIUM 102             
1 41920U 17003D   25340.91492813  .00000441  00000+0  15053-3 0  9993
2 41920  86.3988 168.7707 0002042  85.8413 274.3016 14.34216382465724
IRIDIUM 105             
1 41921U 17003E   25340.95543633  .00000576  00000+0  19858-3 0  9991
2 41921  86.3973 137.2475 0001861  92.6139 267.5270 14.34217857467581
IRIDIUM 104             
1 41922U 17003F   25340.92761684  .00000152  00000+0  47341-4 0  9996
2 41922  86.3989 168.8049 0001755  80.3290 279.8104 14.34218953465713
IRIDIUM 114             
1 41923U 17003G   25340.93394540  .00000104  00000+0  30097-4 0  9998
2 41923  86.3989 168.7862 0001796  86.1754 273.9647 14.34217471465698
IRIDIUM 108             
1 41924U 17003H   25340.89248107  .00000018  00000+0 -53393-6 0  9992
2 41924  86.3968 137.1641 0002132  91.2393 268.9047 14.34217872467541
